LEMUR-1                 
1 40044U 14033AL  24157.41603469  .00002916  00000+0  39395-3 0  9994
2 40044  97.6977 320.0453 0054043 346.6539  13.3239 14.78792099535569
LEMUR-2-ANUBHAVTHAKUR   
1 41873U 16062E   24157.47407939  .00212308  00000+0  10382-2 0  9991
2 41873  51.6594 124.2974 0006953  43.1832 316.9715 15.81114029420277
LEMUR-2-GREENBERG       
1 42837U 17042N   24157.47171127  .00011506  00000+0  82915-3 0  9997
2 42837  97.3638 346.7292 0016321  75.0309 285.2723 15.04208998375888
LEMUR-2-ANDIS           
1 42838U 17042P   24157.49734422  .00010874  00000+0  79225-3 0  9990
2 42838  97.3615 346.5175 0018332  80.3433 279.9864 15.03782691375885
LEMUR-2-MONSON          
1 42839U 17042Q   24157.50466176  .00010102  00000+0  75350-3 0  9990
2 42839  97.3955 346.4322 0013172  64.2905 295.9679 15.02981568375838
LEMUR-2-FURIAUS         
1 42840U 17042R   24157.59926436  .00010721  00000+0  79765-3 0  9992
2 42840  97.3663 346.6381 0014853 120.8932 239.3757 15.03040854375844
LEMUR-2-PETERG          
1 42841U 17042S   24157.48389273  .00012360  00000+0  90876-3 0  9990
2 42841  97.3914 348.2609 0007109  61.1764 299.0175 15.03521477375900
LEMUR-2-DEMBITZ         
1 42842U 17042T   24157.27080764  .00010513  00000+0  77632-3 0  9994
2 42842  97.3812 347.8479 0012946  83.6981 276.5719 15.03353039375892
LEMUR-2-ZACHARY         
1 42845U 17042W   24157.50730760  .00014785  00000+0  97623-3 0  9998
2 42845  97.3771 348.5840 0009760 114.7660 245.4585 15.07481492376109
LEMUR-2-JIN-LUEN        
1 43182U 18014C   24157.30465794  .00013803  00000+0  80017-3 0  9992
2 43182  97.5901  60.5109 0013906  42.6355 317.5952 15.12218584346952
LEMUR-2-URAMCHANSOL     
1 43183U 18014D   24157.56576303  .00025708  00000+0  13547-2 0  9990
2 43183  97.5906  62.2424 0013857  31.9045 328.3024 15.15488858347080
LEMUR-2-KADI            
1 43184U 18014E   24157.46300666  .00016770  00000+0  94563-3 0  9994
2 43184  97.5713  60.1579 0011670  22.5838 337.5904 15.13191569346998
LEMUR-2-THENICKMOLO     
1 43185U 18014F   24157.30408304  .00017497  00000+0  94645-3 0  9994
2 43185  97.5861  61.0928 0008766  28.4155 331.7553 15.14694111347001
LEMUR-2-CHRISTINAHOLT   
1 43882U 18111G   24157.32815427  .00022628  00000+0  10812-2 0  9991
2 43882  97.6362  70.0569 0008315  28.7203 331.4487 15.19004088297987
LEMUR-2-TINYKEV         
1 43883U 18111H   24157.27991442  .00033850  00000+0  14462-2 0  9992
2 43883  97.6148  70.1786 0008749  32.1498 328.0270 15.22756195298089
LEMUR-2-REMY-COLTON     
1 43884U 18111J   24157.27334418  .00022582  00000+0  10697-2 0  9993
2 43884  97.6306  70.6510 0003584  74.4714 285.6916 15.19329395296041
LEMUR-2-GUSTAVO         
1 43885U 18111K   24157.01689450  .00027834  00000+0  13467-2 0  9998
2 43885  97.6290  69.4604 0013265  23.9531 336.2317 15.18476714297942
LEMUR-2-ZO              
1 43886U 18111L   24157.29455293  .00021874  00000+0  10684-2 0  9991
2 43886  97.6187  69.2216 0012721  39.6161 320.6000 15.18205085297996
LEMUR-2-NATALIEMURRAY   
1 43887U 18111M   24157.30782958  .00024552  00000+0  11767-2 0  9994
2 43887  97.6320  70.7613 0007610 356.6746   3.4436 15.18886129298035
LEMUR-2-SARAHBETTYBOO   
1 43888U 18111N   24157.28785554  .00024082  00000+0  11221-2 0  9990
2 43888  97.6679  73.8944 0012961  66.1079 294.1512 15.19817333298060
LEMUR-2-DAISY-HARPER    
1 43889U 18111P   24157.34903428  .00026706  00000+0  11566-2 0  9997
2 43889  97.6528  74.0221 0011082  66.5745 293.6655 15.22324833298112
LEMUR-2-ALEX-MADDY      
1 44407U 19038X   24157.50920928  .00260866  00000+0  15459-2 0  9997
2 44407  97.6523 161.3903 0011876 114.5012 245.7493 15.77241245273120
LEMUR-2-JPGSQUARED      
1 44855U 19089D   24157.13394945  .00114223  00000+0  25181-2 0  9991
2 44855  36.9647  63.5837 0005428 312.9978  47.0323 15.42613889247079
LEMUR-2-HIMOMANDDAD     
1 44860U 19089J   24157.43137804  .00155403  00000+0  24970-2 0  9999
2 44860  36.9623  56.5257 0008303 296.8215  63.1694 15.51542551247051
LEMUR-2-PAPPY           
1 44861U 19089K   24157.48991677  .00067221  00000+0  18142-2 0  9995
2 44861  36.9591  74.7898 0004633 297.5516  62.4767 15.36689736246921
LEMUR-2-THEODOSIA       
1 44863U 19089M   24157.42650795  .00101564  00000+0  21274-2 0  9993
2 44863  36.9660  59.3108 0005477 324.3562  35.6828 15.44178771246998
LEMUR-2-SLICERS         
1 46500U 20068Q   24157.48013930  .00081630  00000+0  16743-2 0  9998
2 46500  97.7800 126.5700 0004371  40.5213 319.6360 15.45742703203235
LEMUR-2-DAYWZAGOODDAY   
1 46501U 20068R   24157.47217955  .00061158  00000+0  15169-2 0  9995
2 46501  97.7874 126.0579 0005799  21.2484 338.9000 15.40142225203173
LEMUR-2-SUSURRUS        
1 46502U 20068S   24157.15720940  .00096410  00000+0  19753-2 0  9996
2 46502  97.7844 126.3233 0004846  36.2395 323.9180 15.45711596203182
LEMUR-2-NICHOL          
1 46503U 20068T   24157.42762121  .00044827  00000+0  12552-2 0  9999
2 46503  97.7907 124.5117 0007256  19.0228 341.1284 15.36472890203083
LEMUR-2-OZARAK          
1 46908U 20081D   24157.47416104  .00049369  00000+0  13649-2 0  9999
2 46908  36.8952 200.8339 0004306 208.5156 151.5361 15.36033580197099
LEMUR-2-JINDRA          
1 46909U 20081E   24157.45465257  .00078953  00000+0  15039-2 0  9997
2 46909  36.8925 181.9191 0006477 186.3014 173.7661 15.47031228197304
LEMUR-2-WALLACE         
1 46910U 20081F   24157.44226124  .00069370  00000+0  14854-2 0  9993
2 46910  36.8880 188.3374 0005135 212.9278 147.1157 15.43668886197226
LEMUR-2-JEREMIAH        
1 46911U 20081G   24157.50260532  .00041745  00000+0  12104-2 0  9994
2 46911  36.9020 200.3893 0004653 221.3171 138.7229 15.34589706197112
LEMUR-2-CHANTAL         
1 47529U 21006DV  24157.14182029  .00528984  00000+0  19853-2 0  9995
2 47529  97.3226 224.8724 0011419 222.8357 137.2026 15.86501586188296
LEMUR-2-AMANDA-SVANTE   
1 48269U 21034B   24157.46862990  .00012797  00000+0  10626-2 0  9994
2 48269  97.6646 223.0568 0003552 159.4845 200.6521 14.98887561168745
LEMUR-2-SPECIAL-K       
1 48273U 21034F   24157.14698673  .00016256  00000+0  13111-2 0  9995
2 48273  97.6662 222.9948 0002070 189.3659 170.7526 14.99958207168724
LEMUR-2-ANNABANANA      
1 48923U 21059AW  24157.45994378  .00204999  17192-4  73943-3 0  9997
2 48923  97.5720 323.8162 0004496 226.4966 133.5932 15.88649030164709
LEMUR-2-ROHOVITHSA      
1 51036U 22002BE  24157.18453657  .00160741  00000+0  17573-2 0  9992
2 51036  97.3879 232.6224 0002262 156.9359 203.2001 15.62789518133121
LEMUR-2-MIRIWARI        
1 51054U 22002BY  24157.45350757  .00448168  00000+0  23484-2 0  9999
2 51054  97.3787 234.5272 0007565 232.1394 127.9189 15.79574000133282
LEMUR-2-DJIRANG         
1 51058U 22002CC  24157.20215888  .00284659  00000+0  15834-2 0  9994
2 51058  97.3767 233.9806 0007301 231.2028 128.8587 15.78666071133249
LEMUR-2-HANCOM-1        
1 52740U 22057J   24157.34546755  .00184821  00000+0  15044-2 0  9991
2 52740  97.5736 291.4272 0003886 239.4454 120.6424 15.70087683113199
LEMUR-2-PHILARI         
1 55013U 23001E   24157.57975621  .00158917  00000+0  24368-2 0  9996
2 55013  97.4220 224.0252 0007975 195.9878 164.1125 15.53720800 79313
LEMUR-2-DISCLAIMER      
1 55014U 23001F   24157.45553511  .00176147  00000+0  20884-2 0  9998
2 55014  97.4206 224.7506 0008758 206.0807 154.0010 15.60590853 79337
LEMUR-2-STEVEALBERS     
1 55017U 23001J   24157.45679970  .00078494  00000+0  15781-2 0  9995
2 55017  97.4196 222.7185 0007457 177.1797 182.9496 15.46323413 79226
LEMUR-2-MMOLO           
1 55038U 23001AF  24157.46643623  .00060284  00000+0  13837-2 0  9993
2 55038  97.4314 224.0760 0011665 186.8376 173.2714 15.42437419 79270
LEMUR-2-FUENTETAJA-01   
1 55088U 23001CH  24157.45601997  .00152360  00000+0  21370-2 0  9993
2 55088  97.4302 225.0757 0010322 184.7076 175.4083 15.56165463 79334
LEMUR-2-ONREFLECTION    
1 56182U 23054E   24157.43965374  .00058376  00000+0  11502-2 0  9995
2 56182  97.3574  55.8589 0005585 174.5560 185.5752 15.47009878 64417
LEMUR-2-SPACEGUS        
1 56187U 23054K   24157.53544454  .00132703  00000+0  20507-2 0  9995
2 56187  97.3566  56.5597 0007927 149.9863 210.1847 15.53600114 64466
LEMUR-2-EMBRIONOVIS     
1 56970U 23084AQ  24157.61307136  .00009594  00000+0  44818-3 0  9994
2 56970  97.5475 276.5464 0014352  57.1254 303.1360 15.19930006 54367
LEMUR-2-NAZIYAH         
1 56974U 23084AU  24157.29620589  .00043152  00000+0  13117-2 0  9997
2 56974  97.5315 278.3947 0008018  31.3121 328.8598 15.33889928 54492
LEMUR-2-AADAM-ALIYAH    
1 56977U 23084AX  24157.29485351  .00044311  00000+0  13450-2 0  9994
2 56977  97.5338 278.5004 0008348  35.9703 324.2099 15.33926321 54493
LEMUR-2-MANO            
1 57390U 23100E   24157.49192436  .00012901  00000+0  91525-3 0  9994
2 57390  99.4937 358.8143 0012717 334.2765  25.7821 15.04883888 48524
LEMUR-2-DEVERILL-M-T    
1 57391U 23100F   24157.51419203  .00006583  00000+0  47669-3 0  9991
2 57391  99.4713 358.3842 0012846 331.6411  28.4108 15.04390684 48536
LEMUR-2-BASS            
1 58259U 23174D   24157.51588915  .00011620  00000+0  57572-3 0  9995
2 58259  97.4539 231.8248 0010152 287.0446  72.9675 15.17873760 31911
LEMUR-2-DILIGHTFUL      
1 58260U 23174E   24157.16941395  .00018556  00000+0  82496-3 0  9991
2 58260  97.4599 232.1459 0009537 280.3669  79.6491 15.21520481 31896
LEMUR-2-GOOD-VIBES      
1 58263U 23174H   24157.49930409  .00016217  00000+0  72152-3 0  9994
2 58263  97.4535 232.3147 0009002 283.9756  76.0478 15.21527400 31948
LEMUR-2-SANITA-VETRA    
1 58267U 23174M   24157.16769363  .00030675  00000+0  13614-2 0  9992
2 58267  97.4529 231.9565 0008620 280.9200  79.1066 15.21480215 31893
LEMUR-2-MARAPAMASM      
1 58332U 23174CE  24157.48609930  .00025397  00000+0  99183-3 0  9994
2 58332  97.4524 233.1820 0008288 239.0757 120.9666 15.25846487 32007
LEMUR-2-THE-CLEANER     
1 58333U 23174CF  24157.46129866  .00017461  00000+0  74646-3 0  9998
2 58333  97.4537 232.7888 0009111 236.6074 123.4291 15.22871781 31971
LEMUR-2-MANGO2A         
1 58335U 23174CH  24157.48467322  .00060285  00000+0  19683-2 0  9995
2 58335  97.4513 233.8136 0009319 228.4874 131.5568 15.31503304 32041
LEMUR-2-JK0903EM1407    
1 58336U 23174CJ  24157.44672913  .00012356  00000+0  57512-3 0  9996
2 58336  97.4536 232.3516 0008356 240.6410 119.3990 15.20042938 31945
LEMUR-2-MANGO2B         
1 58337U 23174CK  24157.48402055  .00037249  00000+0  12230-2 0  9994
2 58337  97.4570 233.9635 0010222 232.9788 127.0519 15.31437902 32046
LEMUR-2-MJR092620       
1 58340U 23174CN  24157.15892038  .00016146  00000+0  74436-3 0  9996
2 58340  97.4596 232.2888 0009568 240.1231 119.9053 15.20301861 31904
